{"type": "FeatureCollection", "features": [ {"type": "Feature", "properties": {"norad_id": 65077, "name": "CREW DRAGON 11", "group": "stations", "lat": -24.665249848230918, "lon": 150.25520562175961, "alt_km": 422.85669922643046, "timestamp": "2025-12-06T20:37:54.833491+00:00", "meta": {"OBJECT_NAME": "CREW DRAGON 11", "OBJECT_ID": "2025-166A", "EPOCH": "2025-12-06T13:01:49.374912", "MEAN_MOTION": 15.4936639, "ECCENTRICITY": 0.00035502, "INCLINATION": 51.6299, "RA_OF_ASC_NODE": 173.16, "ARG_OF_PERICENTER": 211.9909, "MEAN_ANOMALY": 148.0864, "EPHEMERIS_TYPE": 0, "CLASSIFICATION_TYPE": "U", "NORAD_CAT_ID": 65077, "ELEMENT_SET_NO": 999, "REV_AT_EPOCH": 214, "BSTAR": 0.00027332684, "MEAN_MOTION_DOT": 0.00014832, "MEAN_MOTION_DDOT": 0}, "tle": {"line1": "1 65077U 25166A   25340.54293258  .00014832  00000+0  27333-3 0  9995", "line2": "2 65077  51.6299 173.1600 0003550 211.9909 148.0864 15.49366390  2145"}}, "geometry": {"type": "Point", "coordinates": [150.25520562175961, -24.665249848230918]}}, {"type": "Feature", "properties": {"norad_id": 65304, "name": "DRAGON CRS-33", "group": "stations", "lat": -24.665249377140743, "lon": 150.25520610639958, "alt_km": 422.85669921538465, "timestamp": "2025-12-06T20:37:54.833501+00:00", "meta": {"OBJECT_NAME": "DRAGON CRS-33", "OBJECT_ID": "2025-186A", "EPOCH": "2025-12-06T13:01:49.374912", "MEAN_MOTION": 15.4936639, "ECCENTRICITY": 0.00035502, "INCLINATION": 51.6299, "RA_OF_ASC_NODE": 173.16, "ARG_OF_PERICENTER": 211.9909, "MEAN_ANOMALY": 148.0864, "EPHEMERIS_TYPE": 0, "CLASSIFICATION_TYPE": "U", "NORAD_CAT_ID": 65304, "ELEMENT_SET_NO": 999, "REV_AT_EPOCH": 11, "BSTAR": 0.00027332684, "MEAN_MOTION_DOT": 0.00014832, "MEAN_MOTION_DDOT": 0}, "tle": {"line1": "1 65304U 25186A   25340.54293258  .00014832  00000+0  27333-3 0  9990", "line2": "2 65304  51.6299 173.1600 0003550 211.9909 148.0864 15.49366390   113"}}, "geometry": {"type": "Point", "coordinates": [150.25520610639958, -24.665249377140743]}}, {"type": "Feature", "properties": {"norad_id": 65586, "name": "PROGRESS-MS 32", "group": "stations", "lat": -24.665248858940753, "lon": 150.25520663950437, "alt_km": 422.8566992032338, "timestamp": "2025-12-06T20:37:54.833512+00:00", "meta": {"OBJECT_NAME": "PROGRESS-MS 32", "OBJECT_ID": "2025-204A", "EPOCH": "2025-12-06T13:01:49.374912", "MEAN_MOTION": 15.4936639, "ECCENTRICITY": 0.00035502, "INCLINATION": 51.6299, "RA_OF_ASC_NODE": 173.16, "ARG_OF_PERICENTER": 211.9909, "MEAN_ANOMALY": 148.0864, "EPHEMERIS_TYPE": 0, "CLASSIFICATION_TYPE": "U", "NORAD_CAT_ID": 65586, "ELEMENT_SET_NO": 999, "REV_AT_EPOCH": 27, "BSTAR": 0.00027332684, "MEAN_MOTION_DOT": 0.00014832, "MEAN_MOTION_DDOT": 0}, "tle": {"line1": "1 65586U 25204A   25340.54293258  .00014832  00000+0  27333-3 0  9993", "line2": "2 65586  51.6299 173.1600 0003550 211.9909 148.0864 15.49366390   272"}}, "geometry": {"type": "Point", "coordinates": [150.25520663950437, -24.665248858940753]}}, {"type": "Feature", "properties": {"norad_id": 65616, "name": "CYGNUS NG-23", "group": "stations", "lat": -24.665248387850276, "lon": 150.2552071241446, "alt_km": 422.856699192188, "timestamp": "2025-12-06T20:37:54.833522+00:00", "meta": {"OBJECT_NAME": "CYGNUS NG-23", "OBJECT_ID": "2025-208A", "EPOCH": "2025-12-06T13:01:49.374912", "MEAN_MOTION": 15.4936639, "ECCENTRICITY": 0.00035502, "INCLINATION": 51.6299, "RA_OF_ASC_NODE": 173.16, "ARG_OF_PERICENTER": 211.9909, "MEAN_ANOMALY": 148.0864, "EPHEMERIS_TYPE": 0, "CLASSIFICATION_TYPE": "U", "NORAD_CAT_ID": 65616, "ELEMENT_SET_NO": 999, "REV_AT_EPOCH": 22, "BSTAR": 0.00027332684, "MEAN_MOTION_DOT": 0.00014832, "MEAN_MOTION_DDOT": 0}, "tle": {"line1": "1 65616U 25208A   25340.54293258  .00014832  00000+0  27333-3 0  9991", "line2": "2 65616  51.6299 173.1600 0003550 211.9909 148.0864 15.49366390   221"}}, "geometry": {"type": "Point", "coordinates": [150.2552071241446, -24.665248387850276]}}, {"type": "Feature", "properties": {"norad_id": 65729, "name": "DRAGONFLY", "group": "stations", "lat": -27.520186287849672, "lon": 10.20372911325119, "alt_km": 359.63957594067415, "timestamp": "2025-12-06T20:37:54.833532+00:00", "meta": {"OBJECT_NAME": "DRAGONFLY", "OBJECT_ID": "1998-067XH", "EPOCH": "2025-12-05T22:19:10.752384", "MEAN_MOTION": 15.69233632, "ECCENTRICITY": 0.00065123, "INCLINATION": 51.6246, "RA_OF_ASC_NODE": 170.5624, "ARG_OF_PERICENTER": 233.7397, "MEAN_ANOMALY": 126.2998, "EPHEMERIS_TYPE": 0, "CLASSIFICATION_TYPE": "U", "NORAD_CAT_ID": 65729, "ELEMENT_SET_NO": 999, "REV_AT_EPOCH": 1209, "BSTAR": 0.0014111437, "MEAN_MOTION_DOT": 0.00170954, "MEAN_MOTION_DDOT": 0}, "tle": {"line1": "1 65729U 98067XH  25339.92998556  .00170954  00000+0  14111-2 0  9999", "line2": "2 65729  51.6246 170.5624 0006512 233.7397 126.2998 15.69233632 12097"}}, "geometry": {"type": "Point", "coordinates": [10.20372911325119, -27.520186287849672]}}, {"type": "Feature", "properties": {"norad_id": 65731, "name": "1998-067XK", "group": "stations", "lat": 0.4407088057379967, "lon": 167.3813428051393, "alt_km": 379.13203247264755, "timestamp": "2025-12-06T20:37:54.833542+00:00", "meta": {"OBJECT_NAME": "1998-067XK", "OBJECT_ID": "1998-067XK", "EPOCH": "2025-12-06T12:57:48.469248", "MEAN_MOTION": 15.64257956, "ECCENTRICITY": 0.00056029, "INCLINATION": 51.6274, "RA_OF_ASC_NODE": 168.6505, "ARG_OF_PERICENTER": 208.5156, "MEAN_ANOMALY": 151.5533, "EPHEMERIS_TYPE": 0, "CLASSIFICATION_TYPE": "U", "NORAD_CAT_ID": 65731, "ELEMENT_SET_NO": 999, "REV_AT_EPOCH": 1217, "BSTAR": 0.0012478559, "MEAN_MOTION_DOT": 0.00122759, "MEAN_MOTION_DDOT": 0}, "tle": {"line1": "1 65731U 98067XK  25340.54014432  .00122759  00000+0  12479-2 0  9999", "line2": "2 65731  51.6274 168.6505 0005602 208.5156 151.5533 15.64257956 12174"}}, "geometry": {"type": "Point", "coordinates": [167.3813428051393, 0.4407088057379967]}}, {"type": "Feature", "properties": {"norad_id": 65732, "name": "RSP-03", "group": "stations", "lat": -51.11268173137261, "lon": 87.16842201121429, "alt_km": 370.80266430232314, "timestamp": "2025-12-06T20:37:54.833552+00:00", "meta": {"OBJECT_NAME": "RSP-03", "OBJECT_ID": "1998-067XL", "EPOCH": "2025-12-06T13:19:57.149184", "MEAN_MOTION": 15.66703439, "ECCENTRICITY": 0.00063103, "INCLINATION": 51.6248, "RA_OF_ASC_NODE": 167.9959, "ARG_OF_PERICENTER": 211.4337, "MEAN_ANOMALY": 148.6282, "EPHEMERIS_TYPE": 0, "CLASSIFICATION_TYPE": "U", "NORAD_CAT_ID": 65732, "ELEMENT_SET_NO": 999, "REV_AT_EPOCH": 1219, "BSTAR": 0.0014055646, "MEAN_MOTION_DOT": 0.00153185, "MEAN_MOTION_DDOT": 0}, "tle": {"line1": "1 65732U 98067XL  25340.55552256  .00153185  00000+0  14056-2 0  9992", "line2": "2 65732  51.6248 167.9959 0006310 211.4337 148.6282 15.66703439 12196"}}, "geometry": {"type": "Point", "coordinates": [87.16842201121429, -51.11268173137261]}}, {"type": "Feature", "properties": {"norad_id": 65733, "name": "GHS-01", "group": "stations", "lat": 49.14909033799161, "lon": -128.22879825133305, "alt_km": 351.11748338433426, "timestamp": "2025-12-06T20:37:54.833563+00:00", "meta": {"OBJECT_NAME": "GHS-01", "OBJECT_ID": "1998-067XM", "EPOCH": "2025-12-06T14:12:41.079168", "MEAN_MOTION": 15.71789944, "ECCENTRICITY": 0.0006907, "INCLINATION": 51.6264, "RA_OF_ASC_NODE": 166.7395, "ARG_OF_PERICENTER": 238.9064, "MEAN_ANOMALY": 121.1257, "EPHEMERIS_TYPE": 0, "CLASSIFICATION_TYPE": "U", "NORAD_CAT_ID": 65733, "ELEMENT_SET_NO": 999, "REV_AT_EPOCH": 1221, "BSTAR": 0.0018513732, "MEAN_MOTION_DOT": 0.00252273, "MEAN_MOTION_DDOT": 0}, "tle": {"line1": "1 65733U 98067XM  25340.59214212  .00252273  00000+0  18514-2 0  9995", "line2": "2 65733  51.6264 166.7395 0006907 238.9064 121.1257 15.71789944 12211"}}, "geometry": {"type": "Point", "coordinates": [-128.22879825133305, 49.14909033799161]}}, {"type": "Feature", "properties": {"norad_id": 65941, "name": "YOTSUBA-KULOVER", "group": "stations", "lat": -47.6051426143589, "lon": 49.724511836855, "alt_km": 395.9674903590658, "timestamp": "2025-12-06T20:37:54.833574+00:00", "meta": {"OBJECT_NAME": "YOTSUBA-KULOVER", "OBJECT_ID": "1998-067XN", "EPOCH": "2025-12-05T22:00:54.491904", "MEAN_MOTION": 15.58286182, "ECCENTRICITY": 0.00020197, "INCLINATION": 51.6277, "RA_OF_ASC_NODE": 174.238, "ARG_OF_PERICENTER": 187.9006, "MEAN_ANOMALY": 172.1955, "EPHEMERIS_TYPE": 0, "CLASSIFICATION_TYPE": "U", "NORAD_CAT_ID": 65941, "ELEMENT_SET_NO": 999, "REV_AT_EPOCH": 879, "BSTAR": 0.0010118942, "MEAN_MOTION_DOT": 0.0007842, "MEAN_MOTION_DDOT": 0}, "tle": {"line1": "1 65941U 98067XN  25339.91729736  .00078420  00000+0  10119-2 0  9995", "line2": "2 65941  51.6277 174.2380 0002019 187.9006 172.1955 15.58286182  8793"}}, "geometry": {"type": "Point", "coordinates": [49.724511836855, -47.6051426143589]}}, {"type": "Feature", "properties": {"norad_id": 65942, "name": "BOTAN", "group": "stations", "lat": 21.295340912431893, "lon": -29.03037539323618, "alt_km": 379.2257898339831, "timestamp": "2025-12-06T20:37:54.833584+00:00", "meta": {"OBJECT_NAME": "BOTAN", "OBJECT_ID": "1998-067XP", "EPOCH": "2025-12-05T19:24:08.395200", "MEAN_MOTION": 15.6107927, "ECCENTRICITY": 0.00040957, "INCLINATION": 51.6268, "RA_OF_ASC_NODE": 174.2609, "ARG_OF_PERICENTER": 186.092, "MEAN_ANOMALY": 174.0025, "EPHEMERIS_TYPE": 0, "CLASSIFICATION_TYPE": "U", "NORAD_CAT_ID": 65942, "ELEMENT_SET_NO": 999, "REV_AT_EPOCH": 878, "BSTAR": 0.0014404532, "MEAN_MOTION_DOT": 0.001252, "MEAN_MOTION_DDOT": 0}, "tle": {"line1": "1 65942U 98067XP  25339.80843050  .00125200  00000+0  14405-2 0  9991", "line2": "2 65942  51.6268 174.2609 0004095 186.0920 174.0025 15.61079270  8789"}}, "geometry": {"type": "Point", "coordinates": [-29.03037539323618, 21.295340912431893]}}]}